start=new Date('2023-02-22T00:00:00.000Z').valueOf();
sats=[{"GP_ID":"226275938","MEAN_MOTION_DOT":"0.00001096","TLE_LINE1":"1 53053U 22077L   23052.46282582  .00001096  00000-0  89876-4 0  9991","APOAPSIS":"563.952","PERIAPSIS":"562.039","REF_FRAME":"TEME","DECAY_DATE":null,"TIME_SYSTEM":"UTC","RCS_SIZE":"LARGE","PERIOD":"95.919","MEAN_MOTION":"15.01265251","ARG_OF_PERICENTER":"260.1945","TLE_LINE2":"2 53053  97.6577 235.1938 0001378 260.1945  99.9124 15.01265251 34049","BSTAR":"0.00008987600000","OBJECT_NAME":"STARLINK-4337","SEMIMAJOR_AXIS":"6941.131","MEAN_ANOMALY":"99.9124","FILE":"3819803","CLASSIFICATION_TYPE":"U","ECCENTRICITY":"0.00013780","OBJECT_ID":"2022-077L","COUNTRY_CODE":"US","EPHEMERIS_TYPE":"0","MEAN_ELEMENT_THEORY":"SGP4","EPOCH":"2023-02-21T11:06:28.150848","RA_OF_ASC_NODE":"235.1938","INCLINATION":"97.6577","NORAD_CAT_ID":"53053","OBJECT_TYPE":"PAYLOAD","MEAN_MOTION_DDOT":"0.0000000000000","REV_AT_EPOCH":"3404","LAUNCH_DATE":"2022-07-11","ELEMENT_SET_NO":"999","SITE":"AFWTR","CENTER_NAME":"EARTH"},{"OBJECT_ID":"2022-077M","ECCENTRICITY":"0.00009730","CLASSIFICATION_TYPE":"U","MEAN_ANOMALY":"88.8779","FILE":"3819803","BSTAR":"-0.00003184400000","OBJECT_NAME":"STARLINK-4339","SEMIMAJOR_AXIS":"6941.137","TLE_LINE2":"2 53054  97.6561 235.1939 0000973 271.2334  88.8779 15.01263315 34041","MEAN_MOTION":"15.01263315","ARG_OF_PERICENTER":"271.2334","PERIOD":"95.919","RCS_SIZE":"LARGE","TIME_SYSTEM":"UTC","REF_FRAME":"TEME","PERIAPSIS":"562.326","APOAPSIS":"563.677","DECAY_DATE":null,"TLE_LINE1":"1 53054U 22077M   23052.46838021 -.00000468  00000-0 -31844-4 0  9993","GP_ID":"226274691","MEAN_MOTION_DOT":"-0.00000468","CENTER_NAME":"EARTH","SITE":"AFWTR","LAUNCH_DATE":"2022-07-11","ELEMENT_SET_NO":"999","REV_AT_EPOCH":"3404","MEAN_MOTION_DDOT":"0.0000000000000","OBJECT_TYPE":"PAYLOAD","NORAD_CAT_ID":"53054","INCLINATION":"97.6561","RA_OF_ASC_NODE":"235.1939","EPOCH":"2023-02-21T11:14:28.050144","MEAN_ELEMENT_THEORY":"SGP4","EPHEMERIS_TYPE":"0","COUNTRY_CODE":"US"},{"OBJECT_TYPE":"PAYLOAD","NORAD_CAT_ID":"53055","REV_AT_EPOCH":"3404","MEAN_MOTION_DDOT":"0.0000000000000","LAUNCH_DATE":"2022-07-11","ELEMENT_SET_NO":"999","CENTER_NAME":"EARTH","SITE":"AFWTR","COUNTRY_CODE":"US","MEAN_ELEMENT_THEORY":"SGP4","EPHEMERIS_TYPE":"0","RA_OF_ASC_NODE":"235.1961","EPOCH":"2023-02-21T11:03:48.268512","INCLINATION":"97.6587","MEAN_ANOMALY":"263.8118","FILE":"3819803","BSTAR":"0.00007063100000","OBJECT_NAME":"STARLINK-4338","SEMIMAJOR_AXIS":"6941.120","CLASSIFICATION_TYPE":"U","OBJECT_ID":"2022-077N","ECCENTRICITY":"0.00002930","TLE_LINE1":"1 53055U 22077N   23052.46097533  .00000849  00000-0  70631-4 0  9997","GP_ID":"226275441","MEAN_MOTION_DOT":"0.00000849","TIME_SYSTEM":"UTC","PERIAPSIS":"562.782","APOAPSIS":"563.188","REF_FRAME":"TEME","DECAY_DATE":null,"PERIOD":"95.919","RCS_SIZE":"LARGE","TLE_LINE2":"2 53055  97.6587 235.1961 0000293  96.3140 263.8118 15.01268737 34046","MEAN_MOTION":"15.01268737","ARG_OF_PERICENTER":"96.3140"},{"CENTER_NAME":"EARTH","SITE":"AFWTR","ELEMENT_SET_NO":"999","LAUNCH_DATE":"2022-07-11","REV_AT_EPOCH":"3404","MEAN_MOTION_DDOT":"0.0000000000000","OBJECT_TYPE":"PAYLOAD","NORAD_CAT_ID":"53056","INCLINATION":"97.6567","RA_OF_ASC_NODE":"235.1929","EPOCH":"2023-02-21T11:09:08.033184","MEAN_ELEMENT_THEORY":"SGP4","EPHEMERIS_TYPE":"0","COUNTRY_CODE":"US","OBJECT_ID":"2022-077P","ECCENTRICITY":"0.00008770","CLASSIFICATION_TYPE":"U","FILE":"3819803","MEAN_ANOMALY":"109.3328","SEMIMAJOR_AXIS":"6941.135","BSTAR":"0.00005021900000","OBJECT_NAME":"STARLINK-4314","TLE_LINE2":"2 53056  97.6567 235.1929 0000877 250.7802 109.3328 15.01263965 34043","ARG_OF_PERICENTER":"250.7802","MEAN_MOTION":"15.01263965","PERIOD":"95.919","RCS_SIZE":"LARGE","TIME_SYSTEM":"UTC","DECAY_DATE":null,"REF_FRAME":"TEME","PERIAPSIS":"562.391","APOAPSIS":"563.608","TLE_LINE1":"1 53056U 22077P   23052.46467631  .00000586  00000-0  50219-4 0  9996","MEAN_MOTION_DOT":"0.00000586","GP_ID":"226276192"},{"SITE":"AFWTR","CENTER_NAME":"EARTH","ELEMENT_SET_NO":"999","LAUNCH_DATE":"2022-07-11","MEAN_MOTION_DDOT":"0.0000000000000","REV_AT_EPOCH":"3405","NORAD_CAT_ID":"53057","OBJECT_TYPE":"PAYLOAD","INCLINATION":"97.6584","EPOCH":"2023-02-21T12:34:27.240096","RA_OF_ASC_NODE":"235.2614","EPHEMERIS_TYPE":"0","MEAN_ELEMENT_THEORY":"SGP4","COUNTRY_CODE":"US","ECCENTRICITY":"0.00012950","OBJECT_ID":"2022-077Q","CLASSIFICATION_TYPE":"U","SEMIMAJOR_AXIS":"6941.118","BSTAR":"0.00000955820000","OBJECT_NAME":"STARLINK-4252","FILE":"3819803","MEAN_ANOMALY":"268.4985","ARG_OF_PERICENTER":"91.6387","MEAN_MOTION":"15.01269291","TLE_LINE2":"2 53057  97.6584 235.2614 0001295  91.6387 268.4985 15.01269291 34055","RCS_SIZE":"LARGE","PERIOD":"95.919","DECAY_DATE":null,"PERIAPSIS":"562.084","REF_FRAME":"TEME","APOAPSIS":"563.882","TIME_SYSTEM":"UTC","MEAN_MOTION_DOT":"0.00000064","GP_ID":"226276438","TLE_LINE1":"1 53057U 22077Q   23052.52392639  .00000064  00000-0  95582-5 0  9993"},{"PERIOD":"95.919","RCS_SIZE":"LARGE","TLE_LINE2":"2 53058  97.6589 235.1956 0000594 100.7260 259.4031 15.01265526 34040","ARG_OF_PERICENTER":"100.7260","MEAN_MOTION":"15.01265526","TLE_LINE1":"1 53058U 22077R   23052.46122125  .00000086  00000-0  11302-4 0  9999","MEAN_MOTION_DOT":"0.00000086","GP_ID":"226275192","TIME_SYSTEM":"UTC","DECAY_DATE":null,"PERIAPSIS":"562.583","REF_FRAME":"TEME","APOAPSIS":"563.407","OBJECT_ID":"2022-077R","ECCENTRICITY":"0.00005940","FILE":"3819803","MEAN_ANOMALY":"259.4031","SEMIMAJOR_AXIS":"6941.130","BSTAR":"0.00001130200000","OBJECT_NAME":"STARLINK-4317","CLASSIFICATION_TYPE":"U","RA_OF_ASC_NODE":"235.1956","EPOCH":"2023-02-21T11:04:09.516000","INCLINATION":"97.6589","COUNTRY_CODE":"US","MEAN_ELEMENT_THEORY":"SGP4","EPHEMERIS_TYPE":"0","ELEMENT_SET_NO":"999","LAUNCH_DATE":"2022-07-11","CENTER_NAME":"EARTH","SITE":"AFWTR","OBJECT_TYPE":"PAYLOAD","NORAD_CAT_ID":"53058","REV_AT_EPOCH":"3404","MEAN_MOTION_DDOT":"0.0000000000000"},{"BSTAR":"-0.00038627000000","OBJECT_NAME":"STARLINK-4320","SEMIMAJOR_AXIS":"6941.048","MEAN_ANOMALY":"269.5526","FILE":"3821329","CLASSIFICATION_TYPE":"U","ECCENTRICITY":"0.00014870","OBJECT_ID":"2022-077S","GP_ID":"226333613","MEAN_MOTION_DOT":"-0.00005021","TLE_LINE1":"1 53059U 22077S   23052.78707041 -.00005021  00000-0 -38627-3 0  9995","PERIAPSIS":"561.881","APOAPSIS":"563.945","REF_FRAME":"TEME","DECAY_DATE":null,"TIME_SYSTEM":"UTC","RCS_SIZE":"LARGE","PERIOD":"95.917","MEAN_MOTION":"15.01291999","ARG_OF_PERICENTER":"90.5869","TLE_LINE2":"2 53059  97.6585 235.5229 0001487  90.5869 269.5526 15.01291999 34096","NORAD_CAT_ID":"53059","OBJECT_TYPE":"PAYLOAD","MEAN_MOTION_DDOT":"0.0000000000000","REV_AT_EPOCH":"3409","LAUNCH_DATE":"2022-07-11","ELEMENT_SET_NO":"999","SITE":"AFWTR","CENTER_NAME":"EARTH","COUNTRY_CODE":"US","EPHEMERIS_TYPE":"0","MEAN_ELEMENT_THEORY":"SGP4","EPOCH":"2023-02-21T18:53:22.883424","RA_OF_ASC_NODE":"235.5229","INCLINATION":"97.6585"},{"COUNTRY_CODE":"US","MEAN_ELEMENT_THEORY":"SGP4","EPHEMERIS_TYPE":"0","RA_OF_ASC_NODE":"235.1958","EPOCH":"2023-02-21T11:01:08.539104","INCLINATION":"97.6587","OBJECT_TYPE":"PAYLOAD","NORAD_CAT_ID":"53060","REV_AT_EPOCH":"3404","MEAN_MOTION_DDOT":"0.0000000000000","LAUNCH_DATE":"2022-07-11","ELEMENT_SET_NO":"999","CENTER_NAME":"EARTH","SITE":"AFWTR","TLE_LINE1":"1 53060U 22077T   23052.45912661  .00000235  00000-0  22899-4 0  9992","GP_ID":"226275693","MEAN_MOTION_DOT":"0.00000235","TIME_SYSTEM":"UTC","PERIAPSIS":"562.006","APOAPSIS":"563.978","REF_FRAME":"TEME","DECAY_DATE":null,"PERIOD":"95.919","RCS_SIZE":"LARGE","TLE_LINE2":"2 53060  97.6587 235.1958 0001420  95.6409 264.4977 15.01266436 34045","MEAN_MOTION":"15.01266436","ARG_OF_PERICENTER":"95.6409","FILE":"3819803","MEAN_ANOMALY":"264.4977","BSTAR":"0.00002289900000","OBJECT_NAME":"STARLINK-4305","SEMIMAJOR_AXIS":"6941.127","CLASSIFICATION_TYPE":"U","OBJECT_ID":"2022-077T","ECCENTRICITY":"0.00014200"},{"EPHEMERIS_TYPE":"0","MEAN_ELEMENT_THEORY":"SGP4","COUNTRY_CODE":"US","INCLINATION":"97.6586","EPOCH":"2023-02-21T18:50:21.704352","RA_OF_ASC_NODE":"235.5207","MEAN_MOTION_DDOT":"0.0000000000000","REV_AT_EPOCH":"3409","NORAD_CAT_ID":"53061","OBJECT_TYPE":"PAYLOAD","SITE":"AFWTR","CENTER_NAME":"EARTH","LAUNCH_DATE":"2022-07-11","ELEMENT_SET_NO":"999","APOAPSIS":"564.116","PERIAPSIS":"561.720","REF_FRAME":"TEME","DECAY_DATE":null,"TIME_SYSTEM":"UTC","GP_ID":"226332611","MEAN_MOTION_DOT":"-0.00004289","TLE_LINE1":"1 53061U 22077U   23052.78497343 -.00004289  00000-0 -32927-3 0  9991","MEAN_MOTION":"15.01290366","ARG_OF_PERICENTER":"91.5011","TLE_LINE2":"2 53061  97.6586 235.5207 0001726  91.5011 268.6411 15.01290366 34092","RCS_SIZE":"LARGE","PERIOD":"95.917","CLASSIFICATION_TYPE":"U","BSTAR":"-0.00032927000000","OBJECT_NAME":"STARLINK-4308","SEMIMAJOR_AXIS":"6941.053","FILE":"3821329","MEAN_ANOMALY":"268.6411","ECCENTRICITY":"0.00017260","OBJECT_ID":"2022-077U"},{"INCLINATION":"97.6579","EPOCH":"2023-02-21T18:55:42.281184","RA_OF_ASC_NODE":"235.5241","EPHEMERIS_TYPE":"0","MEAN_ELEMENT_THEORY":"SGP4","COUNTRY_CODE":"US","SITE":"AFWTR","CENTER_NAME":"EARTH","ELEMENT_SET_NO":"999","LAUNCH_DATE":"2022-07-11","MEAN_MOTION_DDOT":"0.0000000000000","REV_AT_EPOCH":"3409","NORAD_CAT_ID":"53062","OBJECT_TYPE":"PAYLOAD","ARG_OF_PERICENTER":"99.5471","MEAN_MOTION":"15.01268613","TLE_LINE2":"2 53062  97.6579 235.5241 0002127  99.5471 260.5993 15.01268613 34093","RCS_SIZE":"LARGE","PERIOD":"95.919","DECAY_DATE":null,"APOAPSIS":"564.462","PERIAPSIS":"561.509","REF_FRAME":"TEME","TIME_SYSTEM":"UTC","MEAN_MOTION_DOT":"0.00000327","GP_ID":"226333363","TLE_LINE1":"1 53062U 22077V   23052.78868381  .00000327  00000-0  30040-4 0  9998","ECCENTRICITY":"0.00021270","OBJECT_ID":"2022-077V","CLASSIFICATION_TYPE":"U","SEMIMAJOR_AXIS":"6941.120","BSTAR":"0.00003004000000","OBJECT_NAME":"STARLINK-4311","MEAN_ANOMALY":"260.5993","FILE":"3821329"}];
